FENGYUN 3D              
1 43010U 17072A   26168.21783473  .00000127  00000+0  81928-4 0  9994
2 43010  99.0122 142.6410 0002577  62.8384 297.3054 14.19739314444995
NOAA 20 (JPSS-1)        
1 43013U 17073A   26168.14230706  .00000052  00000+0  45699-4 0  9998
2 43013  98.7771 107.6053 0000297  96.7704 263.3506 14.19511730444464
GOES 17                 
1 43226U 18022A   26167.66685590 -.00000185  00000+0  00000+0 0  9990
2 43226   0.9364  85.7204 0000413  33.4338 296.3372  1.00269739 30416
SENTINEL-3B             
1 43437U 18039A   26168.04944810  .00000089  00000+0  54716-4 0  9998
2 43437  98.6249 235.5837 0000725  88.7172 271.4091 14.26734699424107
FENGYUN 2H              
1 43491U 18050A   26167.77186332 -.00000134  00000+0  00000+0 0  9991
2 43491   3.0297  79.0759 0001983 138.6061  44.6323  1.00269582 29430
METOP-C                 
1 43689U 18087A   26168.13843457  .00000090  00000+0  60753-4 0  9995
2 43689  98.6645 227.7429 0001764 129.4848 230.6485 14.21512138394829
GEO-KOMPSAT-2A          
1 43823U 18100A   26167.63900156 -.00000346  00000+0  00000+0 0  9994
2 43823   0.0523 115.8368 0001803 330.9204 176.4552  1.00270764 27621
METEOR-M2 2             
1 44387U 19038A   26168.24467250  .00000199  00000+0  10605-3 0  9993
2 44387  98.9139 155.5310 0002080  47.7432 312.3922 14.24366283361308
ARKTIKA-M 1             
1 47719U 21016A   26165.99849030 -.00000233  00000+0  00000+0 0  9997
2 47719  63.2382  57.9810 7287766 269.9259  14.6142  2.00623319 38745
FENGYUN 3E              
1 49008U 21062A   26168.20169618  .00000373  00000+0  19629-3 0  9990
2 49008  98.7484 171.6096 0002840  86.5881 273.5620 14.19905446256587
GOES 18                 
1 51850U 22021A   26167.72890358  .00000094  00000+0  00000+0 0  9991
2 51850   0.0413 150.7750 0000299  10.2606 229.3558  1.00270486  6580
NOAA 21 (JPSS-2)        
1 54234U 22150A   26168.10472630  .00000032  00000+0  35854-4 0  9997
2 54234  98.7059 106.8953 0001662 153.9471 206.1789 14.19565432186531
METEOSAT-12 (MTG-I1)    
1 54743U 22170C   26167.68479600 -.00000011  00000+0  00000+0 0  9998
2 54743   0.7378  22.8954 0003149  71.4225  56.7455  1.00272481 12974
TIANMU-1 03             
1 55973U 23039A   26168.17952046  .00013068  00000+0  25803-3 0  9991
2 55973  97.5231 342.1479 0004219  98.7562 261.4165 15.47284588180838
TIANMU-1 04             
1 55974U 23039B   26168.16899988  .00012463  00000+0  24115-3 0  9999
2 55974  97.5167 341.2907 0004878  95.9628 264.2178 15.47881557180841
TIANMU-1 05             
1 55975U 23039C   26168.16028337  .00013492  00000+0  26700-3 0  9997
2 55975  97.5214 341.7427 0003987 115.1316 245.0348 15.47211839180819
TIANMU-1 06             
1 55976U 23039D   26168.17237734  .00013308  00000+0  25821-3 0  9991
2 55976  97.5219 342.3912 0004394 110.8256 249.3465 15.47786596180846
FENGYUN 3G              
1 56232U 23055A   26167.97776433  .00021079  00000+0  34209-3 0  9990
2 56232  49.9934 347.1002 0006984 295.4327  64.5917 15.52621426179973
METEOR-M2 3             
1 57166U 23091A   26168.16873390  .00000006  00000+0  21477-4 0  9990
2 57166  98.6090 223.1474 0004359 155.4354 204.7033 14.24046815154510
TIANMU-1 07             
1 57399U 23101A   26168.16554491  .00005534  00000+0  19423-3 0  9996
2 57399  97.2588 218.8345 0004090 121.5416 238.6225 15.29808746161644
TIANMU-1 08             
1 57400U 23101B   26168.19759693  .00005110  00000+0  17948-3 0  9993
2 57400  97.2576 218.6364 0005569 115.0276 245.1543 15.29812891161649
TIANMU-1 09             
1 57401U 23101C   26168.18101131  .00005553  00000+0  19467-3 0  9990
2 57401  97.2535 218.0359 0004572 126.8909 233.2751 15.29844498161646
TIANMU-1 10             
1 57402U 23101D   26168.14865274  .00005736  00000+0  20112-3 0  9994
2 57402  97.2614 219.0548 0006163 126.2131 233.9680 15.29815843161634
FENGYUN 3F              
1 57490U 23111A   26168.18561440  .00000032  00000+0  35705-4 0  9993
2 57490  98.6836 238.1943 0001592  93.5463 266.5896 14.19939099148867
ARKTIKA-M 2             
1 58584U 23198A   26160.78386103  .00000212  00000+0  00000+0 0  9997
2 58584  63.2205 155.1874 6900401 267.4353  18.7899  2.00606537 18179
TIANMU-1 11             
1 58645U 23205A   26168.18456413  .00004752  00000+0  18194-3 0  9998
2 58645  97.3441 189.7415 0008942  17.1140 343.0399 15.26996531137526
TIANMU-1 12             
1 58646U 23205B   26168.15492904  .00004984  00000+0  19097-3 0  9991
2 58646  97.3430 189.4681 0006738   3.9041 356.2249 15.26961171137501
TIANMU-1 13             
1 58647U 23205C   26168.18710711  .00004889  00000+0  18822-3 0  9993
2 58647  97.3457 189.7723 0005901 341.4320  18.6703 15.26814622137504
TIANMU-1 14             
1 58648U 23205D   26168.17231340  .00004828  00000+0  18562-3 0  9993
2 58648  97.3393 188.9395 0006871 345.5804  14.5238 15.26859324137505
TIANMU-1 19             
1 58660U 23208A   26168.15629885  .00006897  00000+0  22876-3 0  9994
2 58660  97.4511 284.4555 0003827 328.5904  31.5108 15.31574414137327
TIANMU-1 20             
1 58661U 23208B   26168.19411841  .00006367  00000+0  20368-3 0  9996
2 58661  97.4452 285.1289 0006012 333.9814  26.1125 15.32764250137423
