OBJECT_NAME,OBJECT_ID,EPOCH,MEAN_MOTION,ECCENTRICITY,INCLINATION,RA_OF_ASC_NODE,ARG_OF_PERICENTER,MEAN_ANOMALY,EPHEMERIS_TYPE,CLASSIFICATION_TYPE,NORAD_CAT_ID,ELEMENT_SET_NO,REV_AT_EPOCH,BSTAR,MEAN_MOTION_DOT,MEAN_MOTION_DDOT
FENGYUN 3D,2017-072A,2026-06-17T05:13:40.920672,14.19739314,.0002577,99.0122,142.6410,62.8384,297.3054,0,U,43010,999,44499,.81928E-4,.127E-5,0
NOAA 20 (JPSS-1),2017-073A,2026-06-17T03:24:55.329984,14.19511730,.0000297,98.7771,107.6053,96.7704,263.3506,0,U,43013,999,44446,.45699E-4,.52E-6,0
GOES 17,2018-022A,2026-06-16T16:00:16.349760,1.00269739,.0000413,0.9364,85.7204,33.4338,296.3372,0,U,43226,999,3041,0,-.185E-5,0
SENTINEL-3B,2018-039A,2026-06-17T01:11:12.315840,14.26734699,.0000725,98.6249,235.5837,88.7172,271.4091,0,U,43437,999,42410,.54716E-4,.89E-6,0
FENGYUN 2H,2018-050A,2026-06-16T18:31:28.990848,1.00269582,.0001983,3.0297,79.0759,138.6061,44.6323,0,U,43491,999,2943,0,-.134E-5,0
METOP-C,2018-087A,2026-06-17T03:19:20.746848,14.21512138,.0001764,98.6645,227.7429,129.4848,230.6485,0,U,43689,999,39482,.60753E-4,.9E-6,0
GEO-KOMPSAT-2A,2018-100A,2026-06-16T15:20:09.734784,1.00270764,.0001803,0.0523,115.8368,330.9204,176.4552,0,U,43823,999,2762,0,-.346E-5,0
METEOR-M2 2,2019-038A,2026-06-17T05:52:19.704000,14.24366283,.000208,98.9139,155.5310,47.7432,312.3922,0,U,44387,999,36130,.10605E-3,.199E-5,0
ARKTIKA-M 1,2021-016A,2026-06-14T23:57:49.561920,2.00623319,.72877661,63.2382,57.9810,269.9259,14.6142,0,U,47719,999,3874,0,-.233E-5,0
FENGYUN 3E,2021-062A,2026-06-17T04:50:26.549952,14.19905446,.000284,98.7484,171.6096,86.5881,273.5620,0,U,49008,999,25658,.19629E-3,.373E-5,0
GOES 18,2022-021A,2026-06-16T17:29:37.269312,1.00270486,.0000299,0.0413,150.7750,10.2606,229.3558,0,U,51850,999,658,0,.94E-6,0
NOAA 21 (JPSS-2),2022-150A,2026-06-17T02:30:48.352320,14.19565432,.0001662,98.7059,106.8953,153.9471,206.1789,0,U,54234,999,18653,.35854E-4,.32E-6,0
METEOSAT-12 (MTG-I1),2022-170C,2026-06-16T16:26:06.374400,1.00272481,.0003149,0.7378,22.8954,71.4225,56.7455,0,U,54743,999,1297,0,-.11E-6,0
TIANMU-1 03,2023-039A,2026-06-17T04:18:30.567744,15.47284588,.0004219,97.5231,342.1479,98.7562,261.4165,0,U,55973,999,18083,.25803E-3,.13068E-3,0
TIANMU-1 04,2023-039B,2026-06-17T04:03:21.589632,15.47881557,.0004878,97.5167,341.2907,95.9628,264.2178,0,U,55974,999,18084,.24115E-3,.12463E-3,0
TIANMU-1 05,2023-039C,2026-06-17T03:50:48.483168,15.47211839,.0003987,97.5214,341.7427,115.1316,245.0348,0,U,55975,999,18081,.267E-3,.13492E-3,0
TIANMU-1 06,2023-039D,2026-06-17T04:08:13.402176,15.47786596,.0004394,97.5219,342.3912,110.8256,249.3465,0,U,55976,999,18084,.25821E-3,.13308E-3,0
FENGYUN 3G,2023-055A,2026-06-16T23:27:58.838112,15.52621426,.0006984,49.9934,347.1002,295.4327,64.5917,0,U,56232,999,17997,.34209E-3,.21079E-3,0
METEOR-M2 3,2023-091A,2026-06-17T04:02:58.608960,14.24046815,.0004359,98.6090,223.1474,155.4354,204.7033,0,U,57166,999,15451,.21477E-4,.6E-7,0
TIANMU-1 07,2023-101A,2026-06-17T03:58:23.080224,15.29808746,.000409,97.2588,218.8345,121.5416,238.6225,0,U,57399,999,16164,.19423E-3,.5534E-4,0
TIANMU-1 08,2023-101B,2026-06-17T04:44:32.374752,15.29812891,.0005569,97.2576,218.6364,115.0276,245.1543,0,U,57400,999,16164,.17948E-3,.511E-4,0
TIANMU-1 09,2023-101C,2026-06-17T04:20:39.377184,15.29844498,.0004572,97.2535,218.0359,126.8909,233.2751,0,U,57401,999,16164,.19467E-3,.5553E-4,0
TIANMU-1 10,2023-101D,2026-06-17T03:34:03.596736,15.29815843,.0006163,97.2614,219.0548,126.2131,233.9680,0,U,57402,999,16163,.20112E-3,.5736E-4,0
FENGYUN 3F,2023-111A,2026-06-17T04:27:17.084160,14.19939099,.0001592,98.6836,238.1943,93.5463,266.5896,0,U,57490,999,14886,.35705E-4,.32E-6,0
ARKTIKA-M 2,2023-198A,2026-06-09T18:48:45.592992,2.00606537,.69004015,63.2205,155.1874,267.4353,18.7899,0,U,58584,999,1817,0,.212E-5,0
TIANMU-1 11,2023-205A,2026-06-17T04:25:46.340832,15.26996531,.0008942,97.3441,189.7415,17.1140,343.0399,0,U,58645,999,13752,.18194E-3,.4752E-4,0
TIANMU-1 12,2023-205B,2026-06-17T03:43:05.869056,15.26961171,.0006738,97.3430,189.4681,3.9041,356.2249,0,U,58646,999,13750,.19097E-3,.4984E-4,0
TIANMU-1 13,2023-205C,2026-06-17T04:29:26.054304,15.26814622,.0005901,97.3457,189.7723,341.4320,18.6703,0,U,58647,999,13750,.18822E-3,.4889E-4,0
TIANMU-1 14,2023-205D,2026-06-17T04:08:07.877760,15.26859324,.0006871,97.3393,188.9395,345.5804,14.5238,0,U,58648,999,13750,.18562E-3,.4828E-4,0
TIANMU-1 19,2023-208A,2026-06-17T03:45:04.220640,15.31574414,.0003827,97.4511,284.4555,328.5904,31.5108,0,U,58660,999,13732,.22876E-3,.6897E-4,0
TIANMU-1 20,2023-208B,2026-06-17T04:39:31.830624,15.32764250,.0006012,97.4452,285.1289,333.9814,26.1125,0,U,58661,999,13742,.20368E-3,.6367E-4,0
